TEVEL2-1                
1 63217U 25052H   26068.64782323  .00020683  00000+0  70600-3 0  9994
2 63217  97.3991 324.7682 0004767 104.8919 255.2849 15.30341923 54855
STARLINK-35349          
1 65835U 25221N   26068.33313934  .00022314  00000+0  76326-3 0  9998
2 65835  53.1591  90.3675 0001193  85.8820 274.2317 15.30199749 24671
